NORAD_CAT_ID,OBJECT_NAME,OBJECT_TYPE,EPOCH,MEAN_MOTION,ECCENTRICITY,INCLINATION,RA_OF_ASC_NODE,ARG_OF_PERICENTER,MEAN_ANOMALY,BSTAR,MEAN_MOTION_DOT,MEAN_MOTION_DDOT,TLE_LINE0,TLE_LINE1,TLE_LINE2,SEMIMAJOR_AXIS,PERIOD,APOGEE,PERIGEE,DECAYED
52466.0,STARLINK-3840,PAYLOAD,2024-07-20 18:39:25,15.10082849,0.0002933,53.2137,218.8248,45.3384,314.7848,0.0021773,0.00035747,0.0,0 STARLINK-3840,1 52466U 22049R   24202.77737838  .00035747  00000-0  21773-2 0  9998,2 52466  53.2137 218.8248 0002933  45.3384 314.7848 15.10082849122292,6914.084,95.359,537.977,533.921,0.0
52466.0,STARLINK-3840,PAYLOAD,2024-07-21 01:00:38,15.10114895,0.0002872,53.2134,217.6324,47.565,312.5585,0.0024989,0.00041137,0.0,0 STARLINK-3840,1 52466U 22049R   24203.04211540  .00041137  00000-0  24989-2 0  9998,2 52466  53.2134 217.6324 0002872  47.5650 312.5585 15.10114895122339,6913.986,95.357,537.837,533.866,0.0
52466.0,STARLINK-3840,PAYLOAD,2024-07-21 10:32:27,15.10157959,0.0002929,53.2132,215.8464,48.1873,311.9369,0.0026299,0.00043375,0.0,0 STARLINK-3840,1 52466U 22049R   24203.43921118  .00043375  00000-0  26299-2 0  9992,2 52466  53.2132 215.8464 0002929  48.1873 311.9369 15.10157959122239,6913.855,95.354,537.745,533.695,0.0
52466.0,STARLINK-3840,PAYLOAD,2024-07-22 05:36:03,15.10245908,0.0002968,53.2137,212.2742,49.7366,310.3885,0.0031983,0.00053013,0.0,0 STARLINK-3840,1 52466U 22049R   24204.23337161  .00053013  00000-0  31983-2 0  9996,2 52466  53.2137 212.2742 0002968  49.7366 310.3885 15.10245908122510,6913.586,95.349,537.503,533.399,0.0
52466.0,STARLINK-3840,PAYLOAD,2024-07-22 10:21:56,15.10267504,0.0002981,53.2138,211.3809,50.6205,309.5052,0.0033085,0.00054897,0.0,0 STARLINK-3840,1 52466U 22049R   24204.43190512  .00054897  00000-0  33085-2 0  9991,2 52466  53.2138 211.3809 0002981  50.6205 309.5052 15.10267504122380,6913.521,95.347,537.446,533.325,0.0
52466.0,STARLINK-3840,PAYLOAD,2024-07-23 07:00:44,15.10366333,0.0002978,53.2144,207.51,53.7249,306.4018,0.003313,0.00055124,0.0,0 STARLINK-3840,1 52466U 22049R   24205.29218080  .00055124  00000-0  33130-2 0  9992,2 52466  53.2144 207.5100 0002978  53.7249 306.4018 15.10366333122676,6913.219,95.341,537.143,533.025,0.0
52466.0,STARLINK-3840,PAYLOAD,2024-07-24 05:14:45,15.10449963,0.0002965,53.2146,203.3407,56.5824,303.5452,0.0028931,0.00048165,0.0,0 STARLINK-3840,1 52466U 22049R   24206.21857732  .00048165  00000-0  28931-2 0  9998,2 52466  53.2146 203.3407 0002965  56.5824 303.5452 15.10449963122815,6912.964,95.336,536.878,532.779,0.0
52466.0,STARLINK-3840,PAYLOAD,2024-07-24 06:50:02,15.10456039,0.0002959,53.2145,203.0429,56.6533,303.4743,0.0029314,0.00048819,0.0,0 STARLINK-3840,1 52466U 22049R   24206.28474663  .00048819  00000-0  29314-2 0  9995,2 52466  53.2145 203.0429 0002959  56.6533 303.4743 15.10456039122663,6912.945,95.335,536.856,532.765,0.0
52466.0,STARLINK-3840,PAYLOAD,2024-07-24 22:42:51,15.10512788,0.0002933,53.2145,200.0645,59.2104,300.9177,0.0028,0.00046677,0.0,0 STARLINK-3840,1 52466U 22049R   24206.94642561  .00046677  00000-0  28000-2 0  9993,2 52466  53.2145 200.0645 0002933  59.2104 300.9177 15.10512788122763,6912.772,95.332,536.665,532.61,0.0
52466.0,STARLINK-3840,PAYLOAD,2024-07-25 05:03:58,15.10534608,0.0002924,53.2147,198.8736,60.4372,299.6912,0.0026698,0.00044506,0.0,0 STARLINK-3840,1 52466U 22049R   24207.21108974  .00044506  00000-0  26698-2 0  9999,2 52466  53.2147 198.8736 0002924  60.4372 299.6912 15.10534608122969,6912.705,95.33,536.592,532.549,0.0
52466.0,STARLINK-3840,PAYLOAD,2024-07-25 06:39:14,15.105411,0.0002928,53.2147,198.5758,60.8279,299.3006,0.0027148,0.00045274,0.0,0 STARLINK-3840,1 52466U 22049R   24207.27725515  .00045274  00000-0  27148-2 0  9995,2 52466  53.2147 198.5758 0002928  60.8279 299.3006 15.10541100122814,6912.686,95.33,536.575,532.527,0.0
52466.0,STARLINK-3840,PAYLOAD,2024-07-26 08:03:38,15.10641516,0.0002872,53.2145,193.8105,66.6574,293.4721,0.0032149,0.00053883,0.0,0 STARLINK-3840,1 52466U 22049R   24208.33586726  .00053883  00000-0  32149-2 0  9994,2 52466  53.2145 193.8105 0002872  66.6574 293.4721 15.10641516123133,6912.379,95.324,536.23,532.259,0.0
52466.0,STARLINK-3840,PAYLOAD,2024-07-26 16:00:00,15.10674106,0.0002819,53.2142,192.322,68.5626,291.5667,0.0030572,0.00051253,0.0,0 STARLINK-3840,1 52466U 22049R   24208.66666805  .00051253  00000-0  30572-2 0  9994,2 52466  53.2142 192.3220 0002819  68.5626 291.5667 15.10674106123029,6912.28,95.322,536.094,532.196,0.0
52466.0,STARLINK-3840,PAYLOAD,2024-07-27 06:17:24,15.10728885,0.0002829,53.214,189.6414,71.2122,288.9177,0.0026024,0.00043604,0.0,0 STARLINK-3840,1 52466U 22049R   24209.26209125  .00043604  00000-0  26024-2 0  9997,2 52466  53.2140 189.6414 0002829  71.2122 288.9177 15.10728885123271,6912.113,95.318,535.933,532.022,0.0
52466.0,STARLINK-3840,PAYLOAD,2024-07-27 15:49:00,15.10770753,0.0002822,53.2138,187.8545,73.6528,286.4776,0.0029253,0.00049146,0.0,0 STARLINK-3840,1 52466U 22049R   24209.65902783  .00049146  00000-0  29253-2 0  9994,2 52466  53.2138 187.8545 0002822  73.6528 286.4776 15.10770753123170,6911.985,95.316,535.801,531.9,0.0
52466.0,STARLINK-3840,PAYLOAD,2024-07-28 21:58:56,15.10875923,0.0002829,53.2135,182.1943,78.2828,281.8482,0.00246,0.00041357,0.0,0 STARLINK-3840,1 52466U 22049R   24210.91593332  .00041357  00000-0  24600-2 0  9998,2 52466  53.2135 182.1943 0002829  78.2828 281.8482 15.10875923123525,6911.664,95.309,535.485,531.574,0.0
52466.0,STARLINK-3840,PAYLOAD,2024-07-29 04:19:58,15.10899787,0.000283,53.2132,181.0027,79.1876,280.9435,0.0025512,0.00042939,0.0,0 STARLINK-3840,1 52466U 22049R   24211.18053328  .00042939  00000-0  25512-2 0  9994,2 52466  53.2132 181.0027 0002830  79.1876 280.9435 15.10899787123407,6911.592,95.307,535.413,531.501,0.0
52466.0,STARLINK-3840,PAYLOAD,2024-07-29 15:26:44,15.10947111,0.0002831,53.2133,178.9172,80.9844,279.1469,0.0028225,0.00047631,0.0,0 STARLINK-3840,1 52466U 22049R   24211.64357230  .00047631  00000-0  28225-2 0  9992,2 52466  53.2133 178.9172 0002831  80.9844 279.1469 15.10947111123637,6911.447,95.304,535.269,531.356,0.0
52466.0,STARLINK-3840,PAYLOAD,2024-07-30 04:08:45,15.11000205,0.0002852,53.2134,176.5335,83.5707,276.5611,0.0031505,0.00053321,0.0,0 STARLINK-3840,1 52466U 22049R   24212.17274374  .00053321  00000-0  31505-2 0  9996,2 52466  53.2134 176.5335 0002852  83.5707 276.5611 15.11000205123559,6911.285,95.301,535.121,531.179,0.0
52466.0,STARLINK-3840,PAYLOAD,2024-07-30 21:36:27,15.11080063,0.0002885,53.2135,173.2558,87.074,273.0583,0.0034122,0.00057941,0.0,0 STARLINK-3840,1 52466U 22049R   24212.90032229  .00057941  00000-0  34122-2 0  9998,2 52466  53.2135 173.2558 0002885  87.0740 273.0583 15.11080063123823,6911.042,95.296,534.901,530.913,0.0
52466.0,STARLINK-3840,PAYLOAD,2024-07-31 03:57:26,15.11105884,0.0002869,53.2136,172.064,87.7974,272.3347,0.0032562,0.00055298,0.0,0 STARLINK-3840,1 52466U 22049R   24213.16488713  .00055298  00000-0  32562-2 0  9999,2 52466  53.2136 172.0640 0002869  87.7974 272.3347 15.11105884123707,6910.963,95.294,534.811,530.845,0.0
52466.0,STARLINK-3840,PAYLOAD,2024-07-31 21:25:04,15.11184407,0.000286,53.2138,168.7862,91.1993,268.9328,0.0034198,0.00058242,0.0,0 STARLINK-3840,1 52466U 22049R   24213.89241536  .00058242  00000-0  34198-2 0  9998,2 52466  53.2138 168.7862 0002860  91.1993 268.9328 15.11184407123975,6910.724,95.289,534.565,530.612,0.0
52466.0,STARLINK-3840,PAYLOAD,2024-08-01 03:46:01,15.11214468,0.0002821,53.2141,167.5944,92.9869,267.1447,0.0042906,0.00073364,0.0,0 STARLINK-3840,1 52466U 22049R   24214.15696196  .00073364  00000-0  42906-2 0  9992,2 52466  53.2141 167.5944 0002821  92.9869 267.1447 15.11214468123856,6910.632,95.288,534.447,530.548,0.0
52466.0,STARLINK-3840,PAYLOAD,2024-08-01 21:13:34,15.11304127,0.00028,53.2143,164.3169,95.8758,264.2555,0.0033706,0.00057585,0.0,0 STARLINK-3840,1 52466U 22049R   24214.88443263  .00057585  00000-0  33706-2 0  9992,2 52466  53.2143 164.3169 0002800  95.8758 264.2555 15.11304127123960,6910.359,95.282,534.159,530.289,0.0
52466.0,STARLINK-3840,PAYLOAD,2024-08-02 03:34:29,15.11334445,0.0002781,53.2144,163.1245,98.5157,261.6151,0.00341,0.00058317,0.0,0 STARLINK-3840,1 52466U 22049R   24215.14895714  .00058317  00000-0  34100-2 0  9997,2 52466  53.2144 163.1245 0002781  98.5157 261.6151 15.11334445124166,6910.266,95.28,534.053,530.21,0.0
52466.0,STARLINK-3840,PAYLOAD,2024-08-02 13:05:51,15.11374453,0.0002772,53.2145,161.3369,100.348,259.7826,0.0030078,0.00051411,0.0,0 STARLINK-3840,1 52466U 22049R   24215.54573473  .00051411  00000-0  30078-2 0  9994,2 52466  53.2145 161.3369 0002772 100.3480 259.7826 15.11374453124064,6910.144,95.278,533.925,530.094,0.0
52466.0,STARLINK-3840,PAYLOAD,2024-08-03 12:54:11,15.11486634,0.0002751,53.2146,156.8663,106.7293,253.4003,0.0031561,0.0005415,0.0,0 STARLINK-3840,1 52466U 22049R   24216.53762803  .00054150  00000-0  31561-2 0  9992,2 52466  53.2146 156.8663 0002751 106.7293 253.4003 15.11486634124377,6909.802,95.27,533.568,529.767,0.0
52466.0,STARLINK-3840,PAYLOAD,2024-08-03 19:15:03,15.11515572,0.0002717,53.2145,155.6741,107.2243,252.9048,0.0033092,0.00056859,0.0,0 STARLINK-3840,1 52466U 22049R   24216.80212098  .00056859  00000-0  33092-2 0  9997,2 52466  53.2145 155.6741 0002717 107.2243 252.9048 15.11515572124257,6909.714,95.269,533.457,529.702,0.0
52466.0,STARLINK-3840,PAYLOAD,2024-08-04 06:21:33,15.11578667,0.0002735,53.2145,153.5871,112.0891,248.0393,0.0037053,0.00063875,0.0,0 STARLINK-3840,1 52466U 22049R   24217.26496886  .00063875  00000-0  37053-2 0  9994,2 52466  53.2145 153.5871 0002735 112.0891 248.0393 15.11578667124489,6909.522,95.265,533.277,529.497,0.0
52466.0,STARLINK-3840,PAYLOAD,2024-08-05 02:59:15,15.11738245,0.000265,53.2144,149.7117,116.7218,243.4047,0.0066399,0.00116054,0.0,0 STARLINK-3840,1 52466U 22049R   24218.12448744  .00116054  00000-0  66399-2 0  9993,2 52466  53.2144 149.7117 0002650 116.7218 243.4047 15.11738245124618,6909.036,95.255,532.732,529.07,0.0
